COSMOS 1933             
1 18958U 88020A   25344.44437759  .00005746  00000+0  28866-3 0  9994
2 18958  82.5139 339.1469 0005566 133.9450 226.2243 15.17078405 36696
SL-3 R/B                
1 19046U 88032B   25344.55548951  .00008253  00000+0  39735-3 0  9998
2 19046  97.5084 323.2909 0026517 180.5727 179.5482 15.18706215 38579
SL-16 R/B               
1 19120U 88039B   25344.49214755  .00000051  00000+0  46954-4 0  9993
2 19120  71.0153 257.1506 0019757 120.0948 240.2140 14.19596606945728
COSMOS 1953             
1 19210U 88050A   25344.47624076  .00009364  00000+0  35230-3 0  9995
2 19210  82.5089 247.8524 0013831  78.7198 281.5594 15.26896592 24165
SL-8 R/B                
1 19257U 88053B   25344.32621236  .00000460  00000+0  15768-3 0  9990
2 19257  74.0479 277.1675 0019036 122.2317 355.3313 14.38856908963743
COSMOS 1975             
1 19573U 88093A   25344.09318542  .00010226  00000+0  39071-3 0  9996
2 19573  82.5203 207.4783 0012744 120.7955 239.4539 15.26410022  5738
SL-14 R/B               
1 19574U 88093B   25344.48578782  .00000907  00000+0  10187-3 0  9996
2 19574  82.5302 125.7824 0020127 337.1871  88.2301 14.85545442987793
SL-16 R/B               
1 19650U 88102B   25344.41000728 -.00000106  00000+0 -29493-4 0  9999
2 19650  70.9997 339.3454 0013064 155.9117 204.2620 14.16136248914251
INTERCOSMOS 24          
1 20261U 89080A   25344.51972725  .00001538  00000+0  44651-3 0  9991
2 20261  82.6043 162.3963 1188822 139.6682 229.9039 12.59433785655570
SL-14 R/B               
1 20262U 89080C   25344.66418066  .00000629  00000+0  18381-3 0  9992
2 20262  82.5931 230.3530 1230689  28.3302 337.9429 12.50411252649026
DELTA 1 R/B             
1 20323U 89089B   25344.50138299  .00000566  00000+0  14866-3 0  9993
2 20323  97.0754 201.0937 0070252  45.2528 315.4358 14.50569490882806
ARIANE 40 R/B           
1 20443U 90005H   25344.16792674  .00000500  00000+0  17289-3 0  9991
2 20443  98.3245  42.4184 0011228 112.7418 247.4959 14.39795649879929
